INMARSAT 4-F2 (SOUTHPA*)
1 28899U 05044A   26093.77684243 -.00000260  00000+0  00000+0 0  9997
2 28899   4.9982  43.7836 0003341 349.1673 222.3061  1.00271850 74770
GSAT-8 (GAGAN/PRN 127)  
1 37605U 11022A   26093.83062873  .00000084  00000+0  00000+0 0  9994
2 37605   1.9393  82.7173 0005743 224.2054 239.3113  1.00271517 52478
LUCH 5A (SDCM/PRN 140)  
1 37951U 11074B   26093.71012220 -.00000048  00000+0  00000+0 0  9994
2 37951   8.5657  74.8887 0003184 283.7194 255.9988  1.00271098 52304
SES-5 (EGNOS/PRN 136)   
1 38652U 12036A   26093.82066201  .00000032  00000+0  00000+0 0  9994
2 38652   0.0597 304.7411 0002191  69.8132 117.9902  1.00271195 43719
GSAT-10 (GAGAN/PRN 128) 
1 38779U 12051B   26093.83617542 -.00000166  00000+0  00000+0 0  9991
2 38779   0.0858 265.7138 0006154 171.3571 139.0859  1.00273213 49355
LUCH 5B (SDCM/PRN 125)  
1 38977U 12061A   26093.67381950 -.00000136  00000+0  00000+0 0  9992
2 38977  10.3257  50.6078 0002498 229.9149 137.7271  1.00273515 48867
ASTRA 5B (EGNOS/PRN 123)
1 39617U 14011B   26093.82438868  .00000135  00000+0  00000+0 0  9997
2 39617   0.0758 305.2910 0003409  48.2922 158.8225  1.00272629 43929
LUCH 5V (SDCM/PRN 141)  
1 39727U 14023A   26093.83851568 -.00000268  00000+0  00000+0 0  9997
2 39727   4.9514  70.4723 0002841 317.3542 200.9381  1.00270655 43619
GSAT-15 (GAGAN/PRN 139) 
1 41028U 15065A   26093.83825568 -.00000259  00000+0  00000+0 0  9992
2 41028   0.0195 232.1856 0002560 176.3932 178.8352  1.00270351 38052
EUTELSAT 117 WEST B (W*)
1 41589U 16038B   26093.58264576 -.00000014  00000+0  00000+0 0  9992
2 41589   0.0208  49.6134 0000285 221.6003  13.4645  1.00272519 35913
SES-15 (WAAS/PRN 133)   
1 42709U 17026A   26093.64002528  .00000058  00000+0  00000+0 0  9996
2 42709   0.0340 327.2328 0000758  49.7417 276.2283  1.00269959  6681
QZS-2 (QZSS/PRN 194)    
1 42738U 17028A   26093.28308766 -.00000218  00000+0  00000+0 0  9992
2 42738  39.5466 244.2448 0742295 270.5974 278.6523  1.00254002  6878
QZS-3 (QZSS/PRN 199)    
1 42917U 17048A   26093.84484237 -.00000349  00000+0  00000+0 0  9998
2 42917   0.0623 147.3495 0002115 228.5576 247.4429  1.00271823 31519
QZS-4 (QZSS/PRN 195)    
1 42965U 17062A   26093.56063234 -.00000337  00000+0  00000+0 0  9993
2 42965  40.1534 344.4369 0747488 270.4779 279.3726  1.00273009 31059
BEIDOU-3 G1 (PRN 130)   
1 43683U 18085A   26091.86294493 -.00000284  00000+0  00000+0 0  9992
2 43683   2.8820  99.4564 0002059  12.9832 168.3736  1.00268589 27297
EUTELSAT 5 WEST B (EGN*)
1 44624U 19067A   26093.81875534 -.00000044  00000+0  00000+0 0  9991
2 44624   0.0657   9.0620 0003432  13.5366  99.2831  1.00272646 23693
BEIDOU-3 G2 (PRN 144)   
1 45344U 20017A   26093.85130237 -.00000141  00000+0  00000+0 0  9994
2 45344   2.7159  46.1294 0002817 334.0264 198.5302  1.00272156 22514
BEIDOU-3 G3 (PRN 143)   
1 45807U 20040A   26093.86657560 -.00000354  00000+0  00000+0 0  9994
2 45807   2.2656  67.2216 0004502 326.3427 221.1544  1.00270375 21321
GALAXY 30 (WAAS/PRN 135)
1 46114U 20056C   26093.63865469  .00000000  00000+0  00000+0 0  9994
2 46114   0.0196 209.4250 0002431 189.9216 257.5328  1.00271665 20543
QZS-1R (QZSS/PRN 196)   
1 49336U 21096A   26093.84475572 -.00000244  00000+0  00000+0 0  9994
2 49336  37.3098  80.6771 0749992 270.3739 280.6669  1.00281199 16260
QZS-6 (QZSS/PRN 200)    
1 62876U 25023A   26093.83047088 -.00000235  00000+0  00000+0 0  9998
2 62876   0.0374 278.5371 0002087 105.9422 197.1541  1.00274319  4210
